ONEWEB-0258             
1 48976U 21060K   24194.53653400  .00000030  00000+0  44803-4 0  9994
2 48976  87.9106   9.0783 0001748  90.7540 269.3792 13.16595807146878
ONEWEB-0259             
1 48977U 21060L   24194.53019390  .00000027  00000+0  36132-4 0  9991
2 48977  87.9105   9.0643 0001584  86.6211 273.5101 13.16596041146906
ONEWEB-0260             
1 48978U 21060M   24194.52150448 -.00000011  00000+0 -61110-4 0  9990
2 48978  87.9107   9.0948 0002444  89.5788 270.5623 13.16595343146881
ONEWEB-0261             
1 48979U 21060N   24194.49062399  .00000095  00000+0  21521-3 0  9995
2 48979  87.9109   9.0952 0002047  72.2245 287.9109 13.16593567146938
ONEWEB-0262             
1 48980U 21060P   24194.54762626  .00000127  00000+0  29783-3 0  9997
2 48980  87.9106   9.0476 0001482  77.4712 282.6585 13.16594427146909
ONEWEB-0263             
1 48981U 21060Q   24194.57928597 -.00000020  00000+0 -87178-4 0  9999
2 48981  87.9111   9.0582 0001784  73.8499 286.2828 13.16592821148178
ONEWEB-0264             
1 48982U 21060R   24194.54050709  .00000055  00000+0  10963-3 0  9991
2 48982  87.9108   9.0772 0001844  88.2572 271.8770 13.16595251146876
ONEWEB-0266             
1 48984U 21060T   24194.56186832  .00000076  00000+0  16419-3 0  9997
2 48984  87.9107   9.0499 0001741  92.0208 268.1122 13.16593379146866
